NORAD_CAT_ID,OBJECT_NAME,OBJECT_TYPE,EPOCH,MEAN_MOTION,ECCENTRICITY,INCLINATION,RA_OF_ASC_NODE,ARG_OF_PERICENTER,MEAN_ANOMALY,BSTAR,MEAN_MOTION_DOT,MEAN_MOTION_DDOT,TLE_LINE0,TLE_LINE1,TLE_LINE2,SEMIMAJOR_AXIS,PERIOD,APOGEE,PERIGEE,DECAYED
55638.0,STARLINK-5507,PAYLOAD,2023-12-14 13:53:05,14.98331157,0.0002655,69.9998,102.1245,270.2815,89.804,1.453e-05,8e-07,0.0,0 STARLINK-5507,1 55638U 23021L   23348.57853353  .00000080  00000-0  14530-4 0  9999,2 55638  69.9998 102.1245 0002655 270.2815  89.8040 14.98331157 46053,6950.189,96.107,573.9,570.209,0.0
55638.0,STARLINK-5507,PAYLOAD,2023-12-14 17:05:21,14.98332405,0.0002637,69.9998,101.7878,270.2224,89.8632,2.8972e-05,2.53e-06,0.0,0 STARLINK-5507,1 55638U 23021L   23348.71205211  .00000253  00000-0  28972-4 0  9996,2 55638  69.9998 101.7878 0002637 270.2224  89.8632 14.98332405 46070,6950.185,96.107,573.883,570.218,0.0
55638.0,STARLINK-5507,PAYLOAD,2023-12-15 12:18:58,14.98323264,0.0002413,70.0006,99.7686,259.3785,100.7102,-5.7193e-05,-7.75e-06,0.0,0 STARLINK-5507,1 55638U 23021L   23349.51318103 -.00000775  00000-0 -57193-4 0  9998,2 55638  70.0006  99.7686 0002413 259.3785 100.7102 14.98323264 45895,6950.214,96.107,573.756,570.402,0.0
55638.0,STARLINK-5507,PAYLOAD,2023-12-15 13:55:07,14.98322231,0.0002435,70.0005,99.6002,259.8422,100.2462,-6.9133e-05,-9.17e-06,0.0,0 STARLINK-5507,1 55638U 23021L   23349.57994232 -.00000917  00000-0 -69133-4 0  9992,2 55638  70.0005  99.6002 0002435 259.8422 100.2462 14.98322231 46205,6950.217,96.107,573.774,570.39,0.0
55638.0,STARLINK-5507,PAYLOAD,2023-12-15 17:07:23,14.98321059,0.000248,70.0004,99.2634,262.7153,97.3724,-8.2428e-05,-1.076e-05,0.0,0 STARLINK-5507,1 55638U 23021L   23349.71346422 -.00001076  00000-0 -82428-4 0  9999,2 55638  70.0004  99.2634 0002480 262.7153  97.3724 14.98321059 46221,6950.221,96.108,573.809,570.362,0.0
55638.0,STARLINK-5507,PAYLOAD,2023-12-16 12:20:59,14.98332418,0.0002654,70.0001,97.2428,267.5515,92.534,9.9503e-06,2.6e-07,0.0,0 STARLINK-5507,1 55638U 23021L   23350.51457550  .00000026  00000-0  99503-5 0  9999,2 55638  70.0001  97.2428 0002654 267.5515  92.5340 14.98332418 46047,6950.185,96.107,573.895,570.206,0.0
55638.0,STARLINK-5507,PAYLOAD,2023-12-16 13:57:07,14.98331835,0.0002663,70.0001,97.0745,267.6565,92.4289,3.3601e-06,-5.3e-07,0.0,0 STARLINK-5507,1 55638U 23021L   23350.58133605 -.00000053  00000-0  33601-5 0  9996,2 55638  70.0001  97.0745 0002663 267.6565  92.4289 14.98331835 46350,6950.187,96.107,573.903,570.201,0.0
55638.0,STARLINK-5507,PAYLOAD,2023-12-16 17:09:23,14.98332871,0.0002673,70.0001,96.7379,268.7348,91.3505,1.5611e-05,9.3e-07,0.0,0 STARLINK-5507,1 55638U 23021L   23350.71485498  .00000093  00000-0  15611-4 0  9994,2 55638  70.0001  96.7379 0002673 268.7348  91.3505 14.98332871 46373,6950.184,96.107,573.907,570.191,0.0
55638.0,STARLINK-5507,PAYLOAD,2023-12-17 10:46:51,14.98333951,0.0002912,69.9998,94.8856,271.2172,88.8653,0.00013149,1.476e-05,0.0,0 STARLINK-5507,1 55638U 23021L   23351.44920962  .00001476  00000-0  13149-3 0  9994,2 55638  69.9998  94.8856 0002912 271.2172  88.8653 14.98333951 46481,6950.181,96.107,574.07,570.022,0.0
55638.0,STARLINK-5507,PAYLOAD,2023-12-17 17:11:23,14.9834034,0.000278,70.0001,94.213,268.3055,91.7786,0.00019836,2.275e-05,0.0,0 STARLINK-5507,1 55638U 23021L   23351.71624237  .00002275  00000-0  19836-3 0  9997,2 55638  70.0001  94.2130 0002780 268.3055  91.7786 14.98340340 46220,6950.161,96.106,573.958,570.094,0.0
55638.0,STARLINK-5507,PAYLOAD,2023-12-18 12:25:00,14.98334805,0.0002492,70.001,92.1947,247.7629,112.3266,1.184e-05,4.8e-07,0.0,0 STARLINK-5507,1 55638U 23021L   23352.51736669  .00000048  00000-0  11840-4 0  9993,2 55638  70.0010  92.1947 0002492 247.7629 112.3266 14.98334805 46346,6950.178,96.107,573.775,570.311,0.0
55638.0,STARLINK-5507,PAYLOAD,2023-12-18 14:01:08,14.98332453,0.000248,70.0011,92.0265,249.2946,110.7948,-5.2818e-06,-1.56e-06,0.0,0 STARLINK-5507,1 55638U 23021L   23352.58412857 -.00000156  00000-0 -52818-5 0  9993,2 55638  70.0011  92.0265 0002480 249.2946 110.7948 14.98332453 46655,6950.185,96.107,573.774,570.327,0.0
55638.0,STARLINK-5507,PAYLOAD,2023-12-18 17:13:24,14.98339526,0.0002976,69.9997,91.6885,265.156,94.9259,1.2591e-05,5.7e-07,0.0,0 STARLINK-5507,1 55638U 23021L   23352.71764302  .00000057  00000-0  12591-4 0  9994,2 55638  69.9997  91.6885 0002976 265.1560  94.9259 14.98339526 46675,6950.163,96.106,574.097,569.96,0.0
55638.0,STARLINK-5507,PAYLOAD,2023-12-19 10:50:54,14.98326697,0.0002689,70.0006,89.838,266.2137,93.8714,-0.00018242,-2.269e-05,0.0,0 STARLINK-5507,1 55638U 23021L   23353.45201683 -.00002269  00000-0 -18242-3 0  9991,2 55638  70.0006  89.8380 0002689 266.2137  93.8714 14.98326697 46489,6950.203,96.107,573.937,570.199,0.0
55638.0,STARLINK-5507,PAYLOAD,2023-12-19 14:03:10,14.98328201,0.0002608,70.0004,89.501,258.7652,101.3214,-0.00016693,-2.084e-05,0.0,0 STARLINK-5507,1 55638U 23021L   23353.58553566 -.00002084  00000-0 -16693-3 0  9998,2 55638  70.0004  89.5010 0002608 258.7652 101.3214 14.98328201 46802,6950.198,96.107,573.876,570.251,0.0
55638.0,STARLINK-5507,PAYLOAD,2023-12-20 10:52:55,14.98323313,0.0002885,69.9998,87.3114,267.1341,92.9487,-3.3256e-05,-4.9e-06,0.0,0 STARLINK-5507,1 55638U 23021L   23354.45341666 -.00000490  00000-0 -33256-4 0  9995,2 55638  69.9998  87.3114 0002885 267.1341  92.9487 14.98323313 46635,6950.214,96.107,574.084,570.073,0.0
55638.0,STARLINK-5507,PAYLOAD,2023-12-20 14:05:11,14.98327569,0.0002705,70.0,86.9753,258.8275,101.258,-1.2752e-05,-2.45e-06,0.0,0 STARLINK-5507,1 55638U 23021L   23354.58693358 -.00000245  00000-0 -12752-4 0  9993,2 55638  70.0000  86.9753 0002705 258.8275 101.2580 14.98327569 46950,6950.2,96.107,573.945,570.185,0.0
55638.0,STARLINK-5507,PAYLOAD,2023-12-20 15:41:19,14.98329349,0.0002673,70.0002,86.8076,256.5898,103.4964,-3.8602e-06,-1.39e-06,0.0,0 STARLINK-5507,1 55638U 23021L   23354.65369224 -.00000139  00000-0 -38602-5 0  9998,2 55638  70.0002  86.8076 0002673 256.5898 103.4964 14.98329349 46665,6950.195,96.107,573.918,570.202,0.0
55638.0,STARLINK-5507,PAYLOAD,2023-12-21 14:07:12,14.98323994,0.0002378,70.0013,84.452,236.1589,123.9344,0.00013605,1.53e-05,0.0,0 STARLINK-5507,1 55638U 23021L   23355.58833445  .00001530  00000-0  13605-3 0  9990,2 55638  70.0013  84.4520 0002378 236.1589 123.9344 14.98323994 47107,6950.211,96.107,573.729,570.424,0.0
55638.0,STARLINK-5507,PAYLOAD,2023-12-21 15:43:20,14.9832708,0.0002402,70.0013,84.2841,240.9169,119.175,0.00012977,1.456e-05,0.0,0 STARLINK-5507,1 55638U 23021L   23355.65509290  .00001456  00000-0  12977-3 0  9994,2 55638  70.0013  84.2841 0002402 240.9169 119.1750 14.98327080 46811,6950.202,96.107,573.736,570.397,0.0
55638.0,STARLINK-5507,PAYLOAD,2023-12-22 14:09:13,14.98328283,0.0002496,70.0013,81.9281,245.97,114.1198,2.562e-05,2.13e-06,0.0,0 STARLINK-5507,1 55638U 23021L   23356.58973626  .00000213  00000-0  25620-4 0  9995,2 55638  70.0013  81.9281 0002496 245.9700 114.1198 14.98328283 47258,6950.198,96.107,573.798,570.328,0.0
55638.0,STARLINK-5507,PAYLOAD,2023-12-22 15:45:21,14.98328503,0.0002465,70.0011,81.7592,252.8228,107.2661,3.4577e-05,3.2e-06,0.0,0 STARLINK-5507,1 55638U 23021L   23356.65649631  .00000320  00000-0  34577-4 0  9999,2 55638  70.0011  81.7592 0002465 252.8228 107.2661 14.98328503 46967,6950.198,96.107,573.776,570.349,0.0
55638.0,STARLINK-5507,PAYLOAD,2023-12-23 14:11:13,14.9833602,0.0002468,70.0011,79.4016,237.2402,122.8519,-9.0099e-06,-2e-06,0.0,0 STARLINK-5507,1 55638U 23021L   23357.59113151 -.00000200  00000-0 -90099-5 0  9997,2 55638  70.0011  79.4016 0002468 237.2402 122.8519 14.98336020 47404,6950.174,96.107,573.755,570.324,0.0
55638.0,STARLINK-5507,PAYLOAD,2023-12-23 15:47:22,14.98320087,0.0002252,70.0011,79.2313,241.2591,118.8342,0.00027193,3.152e-05,0.0,0 STARLINK-5507,1 55638U 23021L   23357.65789446  .00003152  00000-0  27193-3 0  9990,2 55638  70.0011  79.2313 0002252 241.2591 118.8342 14.98320087 47110,6950.224,96.108,573.654,570.523,0.0
55638.0,STARLINK-5507,PAYLOAD,2023-12-24 04:36:26,14.98332239,0.0002573,70.0007,77.8848,256.7473,103.3399,9.9889e-05,1.099e-05,0.0,0 STARLINK-5507,1 55638U 23021L   23358.19196847  .00001099  00000-0  99889-4 0  9997,2 55638  70.0007  77.8848 0002573 256.7473 103.3399 14.98332239 47199,6950.186,96.107,573.839,570.263,0.0
55638.0,STARLINK-5507,PAYLOAD,2023-12-24 14:13:14,14.98332045,0.0002588,70.0008,76.8752,259.5154,100.5714,0.00015989,1.815e-05,0.0,0 STARLINK-5507,1 55638U 23021L   23358.59252606  .00001815  00000-0  15989-3 0  9991,2 55638  70.0008  76.8752 0002588 259.5154 100.5714 14.98332045 47551,6950.187,96.107,573.85,570.253,0.0
55638.0,STARLINK-5507,PAYLOAD,2023-12-24 15:49:22,14.98335276,0.0002561,70.0008,76.707,257.874,102.2132,0.00013376,1.504e-05,0.0,0 STARLINK-5507,1 55638U 23021L   23358.65928447  .00001504  00000-0  13376-3 0  9994,2 55638  70.0008  76.7070 0002561 257.8740 102.2132 14.98335276 47569,6950.177,96.107,573.822,570.262,0.0
55638.0,STARLINK-5507,PAYLOAD,2023-12-25 09:26:51,14.98330366,0.0002898,69.9998,74.8541,274.3701,85.7127,-4.6442e-05,-6.47e-06,0.0,0 STARLINK-5507,1 55638U 23021L   23359.39365103 -.00000647  00000-0 -46442-4 0  9990,2 55638  69.9998  74.8541 0002898 274.3701  85.7127 14.98330366 47373,6950.192,96.107,574.071,570.043,0.0
55638.0,STARLINK-5507,PAYLOAD,2023-12-25 14:15:15,14.98330734,0.0002714,70.0003,74.35,274.0185,86.0664,-3.2182e-05,-4.77e-06,0.0,0 STARLINK-5507,1 55638U 23021L   23359.59393032 -.00000477  00000-0 -32182-4 0  9991,2 55638  70.0003  74.3500 0002714 274.0185  86.0664 14.98330734 47709,6950.191,96.107,573.942,570.169,0.0
55638.0,STARLINK-5507,PAYLOAD,2023-12-26 11:05:00,14.98328452,0.0002853,69.9995,72.1604,269.838,90.2452,-0.00010302,-1.322e-05,0.0,0 STARLINK-5507,1 55638U 23021L   23360.46181293 -.00001322  00000-0 -10302-3 0  9992,2 55638  69.9995  72.1604 0002853 269.8380  90.2452 14.98328452 47537,6950.198,96.107,574.046,570.08,0.0
